start=new Date('2022-05-24T00:00:00.000Z').valueOf();
sats=[{"ECCENTRICITY":"0.00013560","REF_FRAME":"TEME","ARG_OF_PERICENTER":"65.0160","PERIAPSIS":"538.839","OBJECT_TYPE":"PAYLOAD","MEAN_MOTION":"15.08829684","REV_AT_EPOCH":"130","COUNTRY_CODE":"US","DECAY_DATE":null,"OBJECT_ID":"2022-022F","MEAN_MOTION_DDOT":"0.0000000000000","TLE_LINE2":"2 51857  53.2145 120.0932 0001356  65.0160  62.4254 15.08829684  1306","FILE":"3460905","MEAN_MOTION_DOT":"0.00030319","MEAN_ELEMENT_THEORY":"SGP4","EPHEMERIS_TYPE":"0","ELEMENT_SET_NO":"999","PERIOD":"95.438","RCS_SIZE":"LARGE","OBJECT_NAME":"STARLINK-3571","SITE":"AFETR","EPOCH":"2022-05-23T22:00:01.999584","INCLINATION":"53.2145","TIME_SYSTEM":"UTC","APOAPSIS":"540.715","NORAD_CAT_ID":"51857","GP_ID":"204368684","TLE_LINE1":"1 51857U 22022F   22143.91668981  .00030319  00000-0  19154-2 0  9992","SEMIMAJOR_AXIS":"6917.912","LAUNCH_DATE":"2022-03-03","RA_OF_ASC_NODE":"120.0932","CENTER_NAME":"EARTH","MEAN_ANOMALY":"62.4254","CLASSIFICATION_TYPE":"U","BSTAR":"0.00191540000000"},{"OBJECT_ID":"2022-022G","MEAN_MOTION_DDOT":"0.0000000000000","REV_AT_EPOCH":"130","COUNTRY_CODE":"US","DECAY_DATE":null,"ELEMENT_SET_NO":"999","TLE_LINE2":"2 51858  53.2148 120.0933 0001685  54.3579  53.0664 15.08832919  1307","MEAN_MOTION_DOT":"0.00031140","FILE":"3460905","EPHEMERIS_TYPE":"0","MEAN_ELEMENT_THEORY":"SGP4","PERIOD":"95.438","OBJECT_NAME":"STARLINK-3563","RCS_SIZE":"LARGE","ECCENTRICITY":"0.00016850","PERIAPSIS":"538.601","REF_FRAME":"TEME","ARG_OF_PERICENTER":"54.3579","OBJECT_TYPE":"PAYLOAD","MEAN_MOTION":"15.08832919","SEMIMAJOR_AXIS":"6917.902","MEAN_ANOMALY":"53.0664","CLASSIFICATION_TYPE":"U","RA_OF_ASC_NODE":"120.0933","LAUNCH_DATE":"2022-03-03","CENTER_NAME":"EARTH","BSTAR":"0.00196640000000","SITE":"AFETR","EPOCH":"2022-05-23T22:00:01.999584","APOAPSIS":"540.933","INCLINATION":"53.2148","TIME_SYSTEM":"UTC","NORAD_CAT_ID":"51858","GP_ID":"204368554","TLE_LINE1":"1 51858U 22022G   22143.91668981  .00031140  00000-0  19664-2 0  9992"},{"APOAPSIS":"513.715","INCLINATION":"53.2175","TIME_SYSTEM":"UTC","SITE":"AFETR","EPOCH":"2022-05-23T22:00:01.999584","TLE_LINE1":"1 51859U 22022H   22143.91668981 -.00721544  00000-0 -37871-1 0  9998","GP_ID":"204368586","NORAD_CAT_ID":"51859","SEMIMAJOR_AXIS":"6890.713","BSTAR":"-0.03787100000000","MEAN_ANOMALY":"239.6200","CLASSIFICATION_TYPE":"U","RA_OF_ASC_NODE":"110.3154","LAUNCH_DATE":"2022-03-03","CENTER_NAME":"EARTH","PERIAPSIS":"511.442","REF_FRAME":"TEME","ARG_OF_PERICENTER":"48.7099","ECCENTRICITY":"0.00016490","MEAN_MOTION":"15.17771775","OBJECT_TYPE":"PAYLOAD","ELEMENT_SET_NO":"999","MEAN_MOTION_DOT":"-0.00721544","TLE_LINE2":"2 51859  53.2175 110.3154 0001649  48.7099 239.6200 15.17771775  1309","FILE":"3460905","MEAN_ELEMENT_THEORY":"SGP4","EPHEMERIS_TYPE":"0","MEAN_MOTION_DDOT":"0.0000000000000","OBJECT_ID":"2022-022H","REV_AT_EPOCH":"130","DECAY_DATE":null,"COUNTRY_CODE":"US","OBJECT_NAME":"STARLINK-3560","RCS_SIZE":"LARGE","PERIOD":"94.876"},{"GP_ID":"204339105","TLE_LINE1":"1 51860U 22022J   22143.91668981 -.00723237  00000-0 -35695-1 0  9993","NORAD_CAT_ID":"51860","APOAPSIS":"507.234","INCLINATION":"53.2177","TIME_SYSTEM":"UTC","SITE":"AFETR","EPOCH":"2022-05-23T22:00:01.999584","BSTAR":"-0.03569500000000","MEAN_ANOMALY":"138.1713","CLASSIFICATION_TYPE":"U","RA_OF_ASC_NODE":"110.3201","LAUNCH_DATE":"2022-03-03","CENTER_NAME":"EARTH","SEMIMAJOR_AXIS":"6884.299","MEAN_MOTION":"15.19893573","OBJECT_TYPE":"PAYLOAD","PERIAPSIS":"505.094","REF_FRAME":"TEME","ARG_OF_PERICENTER":"60.2822","ECCENTRICITY":"0.00015540","RCS_SIZE":"LARGE","OBJECT_NAME":"STARLINK-3559","PERIOD":"94.743","ELEMENT_SET_NO":"999","TLE_LINE2":"2 51860  53.2177 110.3201 0001554  60.2822 138.1713 15.19893573 13908","FILE":"3460682","MEAN_MOTION_DOT":"-0.00723237","EPHEMERIS_TYPE":"0","MEAN_ELEMENT_THEORY":"SGP4","OBJECT_ID":"2022-022J","MEAN_MOTION_DDOT":"0.0000000000000","REV_AT_EPOCH":"1390","COUNTRY_CODE":"US","DECAY_DATE":null},{"REV_AT_EPOCH":"1389","COUNTRY_CODE":"US","DECAY_DATE":null,"OBJECT_ID":"2022-022K","MEAN_MOTION_DDOT":"0.0000000000000","TLE_LINE2":"2 51861  53.2176 110.3167 0001620  45.3482 277.5309 15.18026895 13890","FILE":"3460671","MEAN_MOTION_DOT":"-0.00720778","EPHEMERIS_TYPE":"0","MEAN_ELEMENT_THEORY":"SGP4","ELEMENT_SET_NO":"999","PERIOD":"94.860","RCS_SIZE":"LARGE","OBJECT_NAME":"STARLINK-3562","ECCENTRICITY":"0.00016200","REF_FRAME":"TEME","ARG_OF_PERICENTER":"45.3482","PERIAPSIS":"510.690","OBJECT_TYPE":"PAYLOAD","MEAN_MOTION":"15.18026895","SEMIMAJOR_AXIS":"6889.941","LAUNCH_DATE":"2022-03-03","RA_OF_ASC_NODE":"110.3167","CENTER_NAME":"EARTH","MEAN_ANOMALY":"277.5309","CLASSIFICATION_TYPE":"U","BSTAR":"-0.03755000000000","SITE":"AFETR","EPOCH":"2022-05-23T22:00:01.999584","INCLINATION":"53.2176","TIME_SYSTEM":"UTC","APOAPSIS":"512.923","NORAD_CAT_ID":"51861","GP_ID":"204338647","TLE_LINE1":"1 51861U 22022K   22143.91668981 -.00720778  00000-0 -37550-1 0  9993"},{"ECCENTRICITY":"0.00017760","PERIAPSIS":"504.555","ARG_OF_PERICENTER":"46.5988","REF_FRAME":"TEME","OBJECT_TYPE":"PAYLOAD","MEAN_MOTION":"15.20021400","OBJECT_ID":"2022-022L","MEAN_MOTION_DDOT":"0.0000000000000","COUNTRY_CODE":"US","DECAY_DATE":null,"REV_AT_EPOCH":"130","ELEMENT_SET_NO":"999","MEAN_ELEMENT_THEORY":"SGP4","EPHEMERIS_TYPE":"0","TLE_LINE2":"2 51862  53.2176 110.3194 0001776  46.5988 168.5111 15.20021400  1300","FILE":"3460905","MEAN_MOTION_DOT":"-0.00723154","PERIOD":"94.736","OBJECT_NAME":"STARLINK-3508","RCS_SIZE":"LARGE","EPOCH":"2022-05-23T22:00:01.999584","SITE":"AFETR","APOAPSIS":"507.001","TIME_SYSTEM":"UTC","INCLINATION":"53.2176","NORAD_CAT_ID":"51862","GP_ID":"204368887","TLE_LINE1":"1 51862U 22022L   22143.91668981 -.00723154  00000-0 -35556-1 0  9999","SEMIMAJOR_AXIS":"6883.913","MEAN_ANOMALY":"168.5111","CLASSIFICATION_TYPE":"U","CENTER_NAME":"EARTH","LAUNCH_DATE":"2022-03-03","RA_OF_ASC_NODE":"110.3194","BSTAR":"-0.03555600000000"},{"EPOCH":"2022-05-23T22:00:01.999584","SITE":"AFETR","TIME_SYSTEM":"UTC","INCLINATION":"53.2175","APOAPSIS":"512.339","NORAD_CAT_ID":"51863","GP_ID":"204339147","TLE_LINE1":"1 51863U 22022M   22143.91668981 -.00720643  00000-0 -37264-1 0  9998","SEMIMAJOR_AXIS":"6889.169","CENTER_NAME":"EARTH","LAUNCH_DATE":"2022-03-03","RA_OF_ASC_NODE":"110.3178","MEAN_ANOMALY":"323.6726","CLASSIFICATION_TYPE":"U","BSTAR":"-0.03726400000000","ECCENTRICITY":"0.00018940","ARG_OF_PERICENTER":"33.6020","REF_FRAME":"TEME","PERIAPSIS":"509.729","OBJECT_TYPE":"PAYLOAD","MEAN_MOTION":"15.18282312","DECAY_DATE":null,"COUNTRY_CODE":"US","REV_AT_EPOCH":"1389","MEAN_MOTION_DDOT":"0.0000000000000","OBJECT_ID":"2022-022M","EPHEMERIS_TYPE":"0","MEAN_ELEMENT_THEORY":"SGP4","FILE":"3460671","TLE_LINE2":"2 51863  53.2175 110.3178 0001894  33.6020 323.6726 15.18282312 13898","MEAN_MOTION_DOT":"-0.00720643","ELEMENT_SET_NO":"999","PERIOD":"94.844","OBJECT_NAME":"STARLINK-3555","RCS_SIZE":"LARGE"},{"COUNTRY_CODE":"US","DECAY_DATE":null,"REV_AT_EPOCH":"130","MEAN_MOTION_DDOT":"0.0000000000000","OBJECT_ID":"2022-022N","EPHEMERIS_TYPE":"0","MEAN_ELEMENT_THEORY":"SGP4","FILE":"3460905","TLE_LINE2":"2 51864  53.2175 110.3161 0001702  44.2293 261.3945 15.17899345  1302","MEAN_MOTION_DOT":"-0.00721183","ELEMENT_SET_NO":"999","PERIOD":"94.868","OBJECT_NAME":"STARLINK-3548","RCS_SIZE":"LARGE","ECCENTRICITY":"0.00017020","ARG_OF_PERICENTER":"44.2293","REF_FRAME":"TEME","PERIAPSIS":"511.020","OBJECT_TYPE":"PAYLOAD","MEAN_MOTION":"15.17899345","SEMIMAJOR_AXIS":"6890.327","CENTER_NAME":"EARTH","RA_OF_ASC_NODE":"110.3161","LAUNCH_DATE":"2022-03-03","CLASSIFICATION_TYPE":"U","MEAN_ANOMALY":"261.3945","BSTAR":"-0.03771100000000","EPOCH":"2022-05-23T22:00:01.999584","SITE":"AFETR","TIME_SYSTEM":"UTC","INCLINATION":"53.2175","APOAPSIS":"513.365","NORAD_CAT_ID":"51864","GP_ID":"204368455","TLE_LINE1":"1 51864U 22022N   22143.91668981 -.00721183  00000-0 -37711-1 0  9996"},{"RCS_SIZE":"LARGE","OBJECT_NAME":"STARLINK-3503","PERIOD":"94.828","MEAN_MOTION_DOT":"-0.00720638","TLE_LINE2":"2 51865  53.2174 110.3184 0001810  35.9581 355.5584 15.18537859 13896","FILE":"3460672","EPHEMERIS_TYPE":"0","MEAN_ELEMENT_THEORY":"SGP4","ELEMENT_SET_NO":"999","REV_AT_EPOCH":"1389","COUNTRY_CODE":"US","DECAY_DATE":null,"OBJECT_ID":"2022-022P","MEAN_MOTION_DDOT":"0.0000000000000","MEAN_MOTION":"15.18537859","OBJECT_TYPE":"PAYLOAD","REF_FRAME":"TEME","ARG_OF_PERICENTER":"35.9581","PERIAPSIS":"509.014","ECCENTRICITY":"0.00018100","BSTAR":"-0.03698900000000","LAUNCH_DATE":"2022-03-03","RA_OF_ASC_NODE":"110.3184","CENTER_NAME":"EARTH","CLASSIFICATION_TYPE":"U","MEAN_ANOMALY":"355.5584","SEMIMAJOR_AXIS":"6888.396","GP_ID":"204338669","TLE_LINE1":"1 51865U 22022P   22143.91668981 -.00720638  00000-0 -36989-1 0  9997","NORAD_CAT_ID":"51865","INCLINATION":"53.2174","TIME_SYSTEM":"UTC","APOAPSIS":"511.508","SITE":"AFETR","EPOCH":"2022-05-23T22:00:01.999584"},{"MEAN_ELEMENT_THEORY":"SGP4","EPHEMERIS_TYPE":"0","TLE_LINE2":"2 51866  53.2176 110.3173 0001865  34.9803 305.1158 15.18154597 13895","FILE":"3460679","MEAN_MOTION_DOT":"-0.00720709","ELEMENT_SET_NO":"999","COUNTRY_CODE":"US","DECAY_DATE":null,"REV_AT_EPOCH":"1389","OBJECT_ID":"2022-022Q","MEAN_MOTION_DDOT":"0.0000000000000","OBJECT_NAME":"STARLINK-3553","RCS_SIZE":"LARGE","PERIOD":"94.852","ARG_OF_PERICENTER":"34.9803","REF_FRAME":"TEME","PERIAPSIS":"510.135","ECCENTRICITY":"0.00018650","MEAN_MOTION":"15.18154597","OBJECT_TYPE":"PAYLOAD","SEMIMAJOR_AXIS":"6889.555","BSTAR":"-0.03740600000000","CENTER_NAME":"EARTH","RA_OF_ASC_NODE":"110.3173","LAUNCH_DATE":"2022-03-03","CLASSIFICATION_TYPE":"U","MEAN_ANOMALY":"305.1158","TIME_SYSTEM":"UTC","INCLINATION":"53.2176","APOAPSIS":"512.705","EPOCH":"2022-05-23T22:00:01.999584","SITE":"AFETR","GP_ID":"204338644","TLE_LINE1":"1 51866U 22022Q   22143.91668981 -.00720709  00000-0 -37406-1 0  9992","NORAD_CAT_ID":"51866"}];
